SL-8 R/B                
1 11574U 79089B   26100.23446622  .00000293  00000+0  96437-4 0  9995
2 11574  74.0709  32.6482 0016288 200.5301 159.5203 14.42373242440654
SL-14 R/B               
1 11672U 80005B   26100.47216828  .00000628  00000+0  60870-4 0  9997
2 11672  82.5109 277.0778 0017023  60.3958 299.8954 14.90970059481223
SL-8 R/B                
1 12139U 81003B   26100.44303520  .00019552  00000+0  48582-3 0  9999
2 12139  82.9375 260.6274 0258316  68.3720 294.4814 15.12454271319478
SL-3 R/B                
1 12465U 81046B   26100.50818087  .00011822  00000+0  26749-3 0  9997
2 12465  81.2296 251.5060 0018029 268.5648  91.3530 15.42828691443330
SL-3 R/B                
1 12904U 81103B   26100.46963522  .00004643  00000+0  20323-3 0  9994
2 12904  81.1603 176.1497 0013464 175.0118 185.1251 15.21763818978068
SL-3 R/B                
1 13068U 82013B   26100.46535323  .00004198  00000+0  17977-3 0  9997
2 13068  81.1720 123.5172 0023465  74.2512 286.1306 15.22307191409180
SL-3 R/B                
1 13154U 82039B   26100.46062566  .00002035  00000+0  12184-3 0  9998
2 13154  81.1537 179.3227 0027938 217.6593 142.2677 15.10267360386438
SL-3 R/B                
1 13403U 82079B   26100.48949552  .00004955  00000+0  19450-3 0  9996
2 13403  81.1465 155.5237 0025207  60.6666 299.7081 15.25216626382546
SL-14 R/B               
1 13553U 82092B   26100.49754362  .00000433  00000+0  45819-4 0  9997
2 13553  82.5646 111.6392 0019977 191.2425 328.5322 14.86696710333653
SL-3 R/B                
1 13819U 83010B   26100.52168256  .00012781  00000+0  24768-3 0  9996
2 13819  81.1029 323.1895 0015119 298.5420  61.4302 15.47434756362860
SL-3 R/B                
1 14208U 83075B   26100.48565943  .00010728  00000+0  27561-3 0  9992
2 14208  97.6140 106.2865 0023160 114.2814 246.0853 15.39211395335047
COSMOS 1536             
1 14699U 84013A   26100.43217309  .00006592  00000+0  26774-3 0  9993
2 14699  82.5427  76.2775 0014834 163.0288 197.1449 15.24294616277451
SL-14 R/B               
1 14820U 84027B   26100.34139001  .00000529  00000+0  57629-4 0  9994
2 14820  82.5437 215.3286 0016899 225.1881 134.7963 14.86013392252338
SL-8 R/B                
1 15483U 85006B   26100.45818501  .00000229  00000+0  84691-4 0  9995
2 15483  74.0467 202.6910 0017312 110.5012 324.1617 14.37806410158591
SL-12 R/B(2)            
1 15772U 85042D   26100.51202270  .00000035  00000+0  37082-4 0  9990
2 15772  71.1105  20.4963 0032957  75.3049  96.7379 14.21992106118913
SL-14 R/B               
1 15945U 85069B   26100.45113691  .00000446  00000+0  47510-4 0  9995
2 15945  82.5298 355.0761 0020363  87.3529 273.0019 14.86468811177559
SL-16 R/B               
1 16182U 85097B   26100.35647612  .00000182  00000+0  11524-3 0  9996
2 16182  71.0015  73.8819 0008887 221.0668 291.1944 14.16603107 91713
