[{"OBJECT_NAME":"SL-8 R/B","OBJECT_ID":"1979-089B","EPOCH":"2026-04-10T05:37:37.881408","MEAN_MOTION":14.42373242,"ECCENTRICITY":0.0016288,"INCLINATION":74.0709,"RA_OF_ASC_NODE":32.6482,"ARG_OF_PERICENTER":200.5301,"MEAN_ANOMALY":159.5203,"EPHEMERIS_TYPE":0,"CLASSIFICATION_TYPE":"U","NORAD_CAT_ID":11574,"ELEMENT_SET_NO":999,"REV_AT_EPOCH":44065,"BSTAR":9.6437e-5,"MEAN_MOTION_DOT":2.93e-6,"MEAN_MOTION_DDOT":0},{"OBJECT_NAME":"SL-14 R/B","OBJECT_ID":"1980-005B","EPOCH":"2026-04-10T11:19:55.339392","MEAN_MOTION":14.90970059,"ECCENTRICITY":0.0017023,"INCLINATION":82.5109,"RA_OF_ASC_NODE":277.0778,"ARG_OF_PERICENTER":60.3958,"MEAN_ANOMALY":299.8954,"EPHEMERIS_TYPE":0,"CLASSIFICATION_TYPE":"U","NORAD_CAT_ID":11672,"ELEMENT_SET_NO":999,"REV_AT_EPOCH":48122,"BSTAR":6.087e-5,"MEAN_MOTION_DOT":6.28e-6,"MEAN_MOTION_DDOT":0},{"OBJECT_NAME":"SL-8 R/B","OBJECT_ID":"1981-003B","EPOCH":"2026-04-10T10:37:58.241280","MEAN_MOTION":15.12454271,"ECCENTRICITY":0.0258316,"INCLINATION":82.9375,"RA_OF_ASC_NODE":260.6274,"ARG_OF_PERICENTER":68.372,"MEAN_ANOMALY":294.4814,"EPHEMERIS_TYPE":0,"CLASSIFICATION_TYPE":"U","NORAD_CAT_ID":12139,"ELEMENT_SET_NO":999,"REV_AT_EPOCH":31947,"BSTAR":0.00048582,"MEAN_MOTION_DOT":0.00019552,"MEAN_MOTION_DDOT":0},{"OBJECT_NAME":"SL-3 R/B","OBJECT_ID":"1981-046B","EPOCH":"2026-04-10T12:11:46.827168","MEAN_MOTION":15.42828691,"ECCENTRICITY":0.0018029,"INCLINATION":81.2296,"RA_OF_ASC_NODE":251.506,"ARG_OF_PERICENTER":268.5648,"MEAN_ANOMALY":91.353,"EPHEMERIS_TYPE":0,"CLASSIFICATION_TYPE":"U","NORAD_CAT_ID":12465,"ELEMENT_SET_NO":999,"REV_AT_EPOCH":44333,"BSTAR":0.00026749,"MEAN_MOTION_DOT":0.00011822,"MEAN_MOTION_DDOT":0},{"OBJECT_NAME":"SL-3 R/B","OBJECT_ID":"1981-103B","EPOCH":"2026-04-10T11:16:16.483008","MEAN_MOTION":15.21763818,"ECCENTRICITY":0.0013464,"INCLINATION":81.1603,"RA_OF_ASC_NODE":176.1497,"ARG_OF_PERICENTER":175.0118,"MEAN_ANOMALY":185.1251,"EPHEMERIS_TYPE":0,"CLASSIFICATION_TYPE":"U","NORAD_CAT_ID":12904,"ELEMENT_SET_NO":999,"REV_AT_EPOCH":97806,"BSTAR":0.00020323,"MEAN_MOTION_DOT":4.643e-5,"MEAN_MOTION_DDOT":0},{"OBJECT_NAME":"SL-3 R/B","OBJECT_ID":"1982-013B","EPOCH":"2026-04-10T11:10:06.519072","MEAN_MOTION":15.22307191,"ECCENTRICITY":0.0023465,"INCLINATION":81.172,"RA_OF_ASC_NODE":123.5172,"ARG_OF_PERICENTER":74.2512,"MEAN_ANOMALY":286.1306,"EPHEMERIS_TYPE":0,"CLASSIFICATION_TYPE":"U","NORAD_CAT_ID":13068,"ELEMENT_SET_NO":999,"REV_AT_EPOCH":40918,"BSTAR":0.00017977,"MEAN_MOTION_DOT":4.198e-5,"MEAN_MOTION_DDOT":0},{"OBJECT_NAME":"SL-3 R/B","OBJECT_ID":"1982-039B","EPOCH":"2026-04-10T11:03:18.057024","MEAN_MOTION":15.1026736,"ECCENTRICITY":0.0027938,"INCLINATION":81.1537,"RA_OF_ASC_NODE":179.3227,"ARG_OF_PERICENTER":217.6593,"MEAN_ANOMALY":142.2677,"EPHEMERIS_TYPE":0,"CLASSIFICATION_TYPE":"U","NORAD_CAT_ID":13154,"ELEMENT_SET_NO":999,"REV_AT_EPOCH":38643,"BSTAR":0.00012184,"MEAN_MOTION_DOT":2.035e-5,"MEAN_MOTION_DDOT":0},{"OBJECT_NAME":"SL-3 R/B","OBJECT_ID":"1982-079B","EPOCH":"2026-04-10T11:44:52.412928","MEAN_MOTION":15.25216626,"ECCENTRICITY":0.0025207,"INCLINATION":81.1465,"RA_OF_ASC_NODE":155.5237,"ARG_OF_PERICENTER":60.6666,"MEAN_ANOMALY":299.7081,"EPHEMERIS_TYPE":0,"CLASSIFICATION_TYPE":"U","NORAD_CAT_ID":13403,"ELEMENT_SET_NO":999,"REV_AT_EPOCH":38254,"BSTAR":0.0001945,"MEAN_MOTION_DOT":4.955e-5,"MEAN_MOTION_DDOT":0},{"OBJECT_NAME":"SL-14 R/B","OBJECT_ID":"1982-092B","EPOCH":"2026-04-10T11:56:27.768768","MEAN_MOTION":14.8669671,"ECCENTRICITY":0.0019977,"INCLINATION":82.5646,"RA_OF_ASC_NODE":111.6392,"ARG_OF_PERICENTER":191.2425,"MEAN_ANOMALY":328.5322,"EPHEMERIS_TYPE":0,"CLASSIFICATION_TYPE":"U","NORAD_CAT_ID":13553,"ELEMENT_SET_NO":999,"REV_AT_EPOCH":33365,"BSTAR":4.5819e-5,"MEAN_MOTION_DOT":4.33e-6,"MEAN_MOTION_DDOT":0},{"OBJECT_NAME":"SL-3 R/B","OBJECT_ID":"1983-010B","EPOCH":"2026-04-10T12:31:13.373184","MEAN_MOTION":15.47434756,"ECCENTRICITY":0.0015119,"INCLINATION":81.1029,"RA_OF_ASC_NODE":323.1895,"ARG_OF_PERICENTER":298.542,"MEAN_ANOMALY":61.4302,"EPHEMERIS_TYPE":0,"CLASSIFICATION_TYPE":"U","NORAD_CAT_ID":13819,"ELEMENT_SET_NO":999,"REV_AT_EPOCH":36286,"BSTAR":0.00024768,"MEAN_MOTION_DOT":0.00012781,"MEAN_MOTION_DDOT":0},{"OBJECT_NAME":"SL-3 R/B","OBJECT_ID":"1983-075B","EPOCH":"2026-04-10T11:39:20.974752","MEAN_MOTION":15.39211395,"ECCENTRICITY":0.002316,"INCLINATION":97.614,"RA_OF_ASC_NODE":106.2865,"ARG_OF_PERICENTER":114.2814,"MEAN_ANOMALY":246.0853,"EPHEMERIS_TYPE":0,"CLASSIFICATION_TYPE":"U","NORAD_CAT_ID":14208,"ELEMENT_SET_NO":999,"REV_AT_EPOCH":33504,"BSTAR":0.00027561,"MEAN_MOTION_DOT":0.00010728,"MEAN_MOTION_DDOT":0},{"OBJECT_NAME":"COSMOS 1536","OBJECT_ID":"1984-013A","EPOCH":"2026-04-10T10:22:19.754976","MEAN_MOTION":15.24294616,"ECCENTRICITY":0.0014834,"INCLINATION":82.5427,"RA_OF_ASC_NODE":76.2775,"ARG_OF_PERICENTER":163.0288,"MEAN_ANOMALY":197.1449,"EPHEMERIS_TYPE":0,"CLASSIFICATION_TYPE":"U","NORAD_CAT_ID":14699,"ELEMENT_SET_NO":999,"REV_AT_EPOCH":27745,"BSTAR":0.00026774,"MEAN_MOTION_DOT":6.592e-5,"MEAN_MOTION_DDOT":0},{"OBJECT_NAME":"SL-14 R/B","OBJECT_ID":"1984-027B","EPOCH":"2026-04-10T08:11:36.096864","MEAN_MOTION":14.86013392,"ECCENTRICITY":0.0016899,"INCLINATION":82.5437,"RA_OF_ASC_NODE":215.3286,"ARG_OF_PERICENTER":225.1881,"MEAN_ANOMALY":134.7963,"EPHEMERIS_TYPE":0,"CLASSIFICATION_TYPE":"U","NORAD_CAT_ID":14820,"ELEMENT_SET_NO":999,"REV_AT_EPOCH":25233,"BSTAR":5.7629e-5,"MEAN_MOTION_DOT":5.29e-6,"MEAN_MOTION_DDOT":0},{"OBJECT_NAME":"SL-8 R/B","OBJECT_ID":"1985-006B","EPOCH":"2026-04-10T10:59:47.184864","MEAN_MOTION":14.3780641,"ECCENTRICITY":0.0017312,"INCLINATION":74.0467,"RA_OF_ASC_NODE":202.691,"ARG_OF_PERICENTER":110.5012,"MEAN_ANOMALY":324.1617,"EPHEMERIS_TYPE":0,"CLASSIFICATION_TYPE":"U","NORAD_CAT_ID":15483,"ELEMENT_SET_NO":999,"REV_AT_EPOCH":15859,"BSTAR":8.4691e-5,"MEAN_MOTION_DOT":2.29e-6,"MEAN_MOTION_DDOT":0},{"OBJECT_NAME":"SL-12 R/B(2)","OBJECT_ID":"1985-042D","EPOCH":"2026-04-10T12:17:18.761280","MEAN_MOTION":14.21992106,"ECCENTRICITY":0.0032957,"INCLINATION":71.1105,"RA_OF_ASC_NODE":20.4963,"ARG_OF_PERICENTER":75.3049,"MEAN_ANOMALY":96.7379,"EPHEMERIS_TYPE":0,"CLASSIFICATION_TYPE":"U","NORAD_CAT_ID":15772,"ELEMENT_SET_NO":999,"REV_AT_EPOCH":11891,"BSTAR":3.7082e-5,"MEAN_MOTION_DOT":3.5e-7,"MEAN_MOTION_DDOT":0},{"OBJECT_NAME":"SL-14 R/B","OBJECT_ID":"1985-069B","EPOCH":"2026-04-10T10:49:38.229024","MEAN_MOTION":14.86468811,"ECCENTRICITY":0.0020363,"INCLINATION":82.5298,"RA_OF_ASC_NODE":355.0761,"ARG_OF_PERICENTER":87.3529,"MEAN_ANOMALY":273.0019,"EPHEMERIS_TYPE":0,"CLASSIFICATION_TYPE":"U","NORAD_CAT_ID":15945,"ELEMENT_SET_NO":999,"REV_AT_EPOCH":17755,"BSTAR":4.751e-5,"MEAN_MOTION_DOT":4.46e-6,"MEAN_MOTION_DDOT":0},{"OBJECT_NAME":"SL-16 R/B","OBJECT_ID":"1985-097B","EPOCH":"2026-04-10T08:33:19.536768","MEAN_MOTION":14.16603107,"ECCENTRICITY":0.0008887,"INCLINATION":71.0015,"RA_OF_ASC_NODE":73.8819,"ARG_OF_PERICENTER":221.0668,"MEAN_ANOMALY":291.1944,"EPHEMERIS_TYPE":0,"CLASSIFICATION_TYPE":"U","NORAD_CAT_ID":16182,"ELEMENT_SET_NO":999,"REV_AT_EPOCH":9171,"BSTAR":0.00011524,"MEAN_MOTION_DOT":1.82e-6,"MEAN_MOTION_DDOT":0}]
